ONEWEB-0634             
1 56075U 23043AF  25354.10994072 -.00000128  00000+0 -37538-3 0  9997
2 56075  87.9003 294.9671 0001473  75.2563 284.8731 13.15550028132855
ONEWEB-0635             
1 56076U 23043AG  25353.34460940 -.00000024  00000+0 -96929-4 0  9990
2 56076  87.8996 295.0735 0002053  82.7307 277.4057 13.15546019132789
ONEWEB-0636             
1 56077U 23043AH  25354.09726581 -.00000228  00000+0 -63916-3 0  9995
2 56077  87.8997 294.9410 0001989  82.3868 277.7488 13.15546052132861
ONEWEB-0637             
1 56078U 23043AJ  25354.09092419 -.00000490  00000+0 -13361-2 0  9991
2 56078  87.9001 294.9586 0001749  86.3595 273.7736 13.15547089132883
ONEWEB-0647             
1 56079U 23043AK  25354.08617697 -.00000015  00000+0 -72766-4 0  9991
2 56079  87.9000 294.9726 0001973  77.2567 282.8784 13.15550511132873
ONEWEB-0651             
1 56080U 23043AL  25353.85324510  .00000037  00000+0  64041-4 0  9995
2 56080  87.9004 295.0126 0001929  84.8827 275.2524 13.15546442134046
ONEWEB-0718             
1 56081U 23043AM  25353.54427466  .00000131  00000+0  31508-3 0  9992
2 56081  87.9001 295.0547 0001263  70.3517 289.7749 13.15549415132813
ONEWEB-0561             
1 56710U 23068A   25353.57842266  .00000050  00000+0  90440-4 0  9991
2 56710  87.9202 310.2703 0002295  84.5400 275.5995 13.20770639125798
